STARLINK-35850          
1 66352U 25254E   25329.48182461  .00104637  00000+0  70970-3 0  9991
2 66352  53.1591   0.6047 0001147  66.8900 293.2240 15.74195886  2960
STARLINK-35869          
1 66353U 25254F   25329.48148808  .00068870  00000+0  47088-3 0  9991
2 66353  53.1588   0.6019 0001673  59.8306 300.2880 15.74179666  2969
STARLINK-35895          
1 66354U 25254G   25329.48114981  .00117101  00000+0  79256-3 0  9991
2 66354  53.1588   0.5993 0001186  96.8541 263.2613 15.74195574  2969
STARLINK-35861          
1 66355U 25254H   25329.48081330  .00088426  00000+0  60192-3 0  9999
2 66355  53.1588   0.5972 0001717  74.6811 285.4399 15.74181379  2966
STARLINK-35851          
1 66356U 25254J   25329.48047556  .00070635  00000+0  48285-3 0  9994
2 66356  53.1588   0.5945 0001655  83.0101 277.1107 15.74174069  2967
STARLINK-35817          
1 66357U 25254K   25329.48013447  .00114695  00000+0  77651-3 0  9991
2 66357  53.1588   0.5925 0001004  72.5182 287.5947 15.74197745  2969
STARLINK-35807          
1 66358U 25254L   25329.47979692  .00155522  00000+0  10457-2 0  9998
2 66358  53.1586   0.5899 0001287  86.8739 273.2428 15.74210441  2962
STARLINK-35805          
1 66359U 25254M   25329.47945759  .00099673  00000+0  67665-3 0  9994
2 66359  53.1587   0.5882 0001157  55.8982 304.2147 15.74195235  4102
STARLINK-35823          
1 66360U 25254N   25329.47878196  .00130498  00000+0  88081-3 0  9992
2 66360  53.1585   0.5831 0001326  51.2458 308.8681 15.74209409  2966
STARLINK-35813          
1 66361U 25254P   25329.47912301  .00081425  00000+0  55515-3 0  9991
2 66361  53.1588   0.5855 0001859 107.1232 252.9991 15.74177822  2964
STARLINK-35822          
1 66362U 25254Q   25329.47810892  .00073539  00000+0  50234-3 0  9994
2 66362  53.1587   0.5783 0001634  96.3876 263.7330 15.74174742  2963
STARLINK-35806          
1 66363U 25254R   25329.47844757  .00095189  00000+0  64715-3 0  9996
2 66363  53.1587   0.5803 0001701  72.8603 287.2603 15.74180214  2964
