CCSDS_OMM_VERS = 2.0
CREATION_DATE  = 
ORIGINATOR     = 

OBJECT_NAME    = STARLINK-35850
OBJECT_ID      = 2025-254E
CENTER_NAME    = EARTH
REF_FRAME      = TEME
TIME_SYSTEM    = UTC
MEAN_ELEMENT_THEORY = SGP/SGP4

EPOCH          = 2025-11-25T11:33:49.646304
MEAN_MOTION    = 15.74195886
ECCENTRICITY   = .0001147
INCLINATION    = 53.1591
RA_OF_ASC_NODE = 0.6047
ARG_OF_PERICENTER = 66.8900
MEAN_ANOMALY   = 293.2240

EPHEMERIS_TYPE = 0
CLASSIFICATION_TYPE = U
NORAD_CAT_ID   = 66352
ELEMENT_SET_NO = 999
REV_AT_EPOCH   = 296
BSTAR          = .7097E-3
MEAN_MOTION_DOT = .104637E-2
MEAN_MOTION_DDOT = 0

CCSDS_OMM_VERS = 2.0
CREATION_DATE  = 
ORIGINATOR     = 

OBJECT_NAME    = STARLINK-35869
OBJECT_ID      = 2025-254F
CENTER_NAME    = EARTH
REF_FRAME      = TEME
TIME_SYSTEM    = UTC
MEAN_ELEMENT_THEORY = SGP/SGP4

EPOCH          = 2025-11-25T11:33:20.570112
MEAN_MOTION    = 15.74179666
ECCENTRICITY   = .0001673
INCLINATION    = 53.1588
RA_OF_ASC_NODE = 0.6019
ARG_OF_PERICENTER = 59.8306
MEAN_ANOMALY   = 300.2880

EPHEMERIS_TYPE = 0
CLASSIFICATION_TYPE = U
NORAD_CAT_ID   = 66353
ELEMENT_SET_NO = 999
REV_AT_EPOCH   = 296
BSTAR          = .47088E-3
MEAN_MOTION_DOT = .6887E-3
MEAN_MOTION_DDOT = 0

CCSDS_OMM_VERS = 2.0
CREATION_DATE  = 
ORIGINATOR     = 

OBJECT_NAME    = STARLINK-35895
OBJECT_ID      = 2025-254G
CENTER_NAME    = EARTH
REF_FRAME      = TEME
TIME_SYSTEM    = UTC
MEAN_ELEMENT_THEORY = SGP/SGP4

EPOCH          = 2025-11-25T11:32:51.343584
MEAN_MOTION    = 15.74195574
ECCENTRICITY   = .0001186
INCLINATION    = 53.1588
RA_OF_ASC_NODE = 0.5993
ARG_OF_PERICENTER = 96.8541
MEAN_ANOMALY   = 263.2613

EPHEMERIS_TYPE = 0
CLASSIFICATION_TYPE = U
NORAD_CAT_ID   = 66354
ELEMENT_SET_NO = 999
REV_AT_EPOCH   = 296
BSTAR          = .79256E-3
MEAN_MOTION_DOT = .117101E-2
MEAN_MOTION_DDOT = 0

CCSDS_OMM_VERS = 2.0
CREATION_DATE  = 
ORIGINATOR     = 

OBJECT_NAME    = STARLINK-35861
OBJECT_ID      = 2025-254H
CENTER_NAME    = EARTH
REF_FRAME      = TEME
TIME_SYSTEM    = UTC
MEAN_ELEMENT_THEORY = SGP/SGP4

EPOCH          = 2025-11-25T11:32:22.269120
MEAN_MOTION    = 15.74181379
ECCENTRICITY   = .0001717
INCLINATION    = 53.1588
RA_OF_ASC_NODE = 0.5972
ARG_OF_PERICENTER = 74.6811
MEAN_ANOMALY   = 285.4399

EPHEMERIS_TYPE = 0
CLASSIFICATION_TYPE = U
NORAD_CAT_ID   = 66355
ELEMENT_SET_NO = 999
REV_AT_EPOCH   = 296
BSTAR          = .60192E-3
MEAN_MOTION_DOT = .88426E-3
MEAN_MOTION_DDOT = 0

CCSDS_OMM_VERS = 2.0
CREATION_DATE  = 
ORIGINATOR     = 

OBJECT_NAME    = STARLINK-35851
OBJECT_ID      = 2025-254J
CENTER_NAME    = EARTH
REF_FRAME      = TEME
TIME_SYSTEM    = UTC
MEAN_ELEMENT_THEORY = SGP/SGP4

EPOCH          = 2025-11-25T11:31:53.088384
MEAN_MOTION    = 15.74174069
ECCENTRICITY   = .0001655
INCLINATION    = 53.1588
RA_OF_ASC_NODE = 0.5945
ARG_OF_PERICENTER = 83.0101
MEAN_ANOMALY   = 277.1107

EPHEMERIS_TYPE = 0
CLASSIFICATION_TYPE = U
NORAD_CAT_ID   = 66356
ELEMENT_SET_NO = 999
REV_AT_EPOCH   = 296
BSTAR          = .48285E-3
MEAN_MOTION_DOT = .70635E-3
MEAN_MOTION_DDOT = 0

CCSDS_OMM_VERS = 2.0
CREATION_DATE  = 
ORIGINATOR     = 

OBJECT_NAME    = STARLINK-35817
OBJECT_ID      = 2025-254K
CENTER_NAME    = EARTH
REF_FRAME      = TEME
TIME_SYSTEM    = UTC
MEAN_ELEMENT_THEORY = SGP/SGP4

EPOCH          = 2025-11-25T11:31:23.618208
MEAN_MOTION    = 15.74197745
ECCENTRICITY   = .0001004
INCLINATION    = 53.1588
RA_OF_ASC_NODE = 0.5925
ARG_OF_PERICENTER = 72.5182
MEAN_ANOMALY   = 287.5947

EPHEMERIS_TYPE = 0
CLASSIFICATION_TYPE = U
NORAD_CAT_ID   = 66357
ELEMENT_SET_NO = 999
REV_AT_EPOCH   = 296
BSTAR          = .77651E-3
MEAN_MOTION_DOT = .114695E-2
MEAN_MOTION_DDOT = 0

CCSDS_OMM_VERS = 2.0
CREATION_DATE  = 
ORIGINATOR     = 

OBJECT_NAME    = STARLINK-35807
OBJECT_ID      = 2025-254L
CENTER_NAME    = EARTH
REF_FRAME      = TEME
TIME_SYSTEM    = UTC
MEAN_ELEMENT_THEORY = SGP/SGP4

EPOCH          = 2025-11-25T11:30:54.453888
MEAN_MOTION    = 15.74210441
ECCENTRICITY   = .0001287
INCLINATION    = 53.1586
RA_OF_ASC_NODE = 0.5899
ARG_OF_PERICENTER = 86.8739
MEAN_ANOMALY   = 273.2428

EPHEMERIS_TYPE = 0
CLASSIFICATION_TYPE = U
NORAD_CAT_ID   = 66358
ELEMENT_SET_NO = 999
REV_AT_EPOCH   = 296
BSTAR          = .10457E-2
MEAN_MOTION_DOT = .155522E-2
MEAN_MOTION_DDOT = 0

CCSDS_OMM_VERS = 2.0
CREATION_DATE  = 
ORIGINATOR     = 

OBJECT_NAME    = STARLINK-35805
OBJECT_ID      = 2025-254M
CENTER_NAME    = EARTH
REF_FRAME      = TEME
TIME_SYSTEM    = UTC
MEAN_ELEMENT_THEORY = SGP/SGP4

EPOCH          = 2025-11-25T11:30:25.135776
MEAN_MOTION    = 15.74195235
ECCENTRICITY   = .0001157
INCLINATION    = 53.1587
RA_OF_ASC_NODE = 0.5882
ARG_OF_PERICENTER = 55.8982
MEAN_ANOMALY   = 304.2147

EPHEMERIS_TYPE = 0
CLASSIFICATION_TYPE = U
NORAD_CAT_ID   = 66359
ELEMENT_SET_NO = 999
REV_AT_EPOCH   = 410
BSTAR          = .67665E-3
MEAN_MOTION_DOT = .99673E-3
MEAN_MOTION_DDOT = 0

CCSDS_OMM_VERS = 2.0
CREATION_DATE  = 
ORIGINATOR     = 

OBJECT_NAME    = STARLINK-35823
OBJECT_ID      = 2025-254N
CENTER_NAME    = EARTH
REF_FRAME      = TEME
TIME_SYSTEM    = UTC
MEAN_ELEMENT_THEORY = SGP/SGP4

EPOCH          = 2025-11-25T11:29:26.761344
MEAN_MOTION    = 15.74209409
ECCENTRICITY   = .0001326
INCLINATION    = 53.1585
RA_OF_ASC_NODE = 0.5831
ARG_OF_PERICENTER = 51.2458
MEAN_ANOMALY   = 308.8681

EPHEMERIS_TYPE = 0
CLASSIFICATION_TYPE = U
NORAD_CAT_ID   = 66360
ELEMENT_SET_NO = 999
REV_AT_EPOCH   = 296
BSTAR          = .88081E-3
MEAN_MOTION_DOT = .130498E-2
MEAN_MOTION_DDOT = 0

CCSDS_OMM_VERS = 2.0
CREATION_DATE  = 
ORIGINATOR     = 

OBJECT_NAME    = STARLINK-35813
OBJECT_ID      = 2025-254P
CENTER_NAME    = EARTH
REF_FRAME      = TEME
TIME_SYSTEM    = UTC
MEAN_ELEMENT_THEORY = SGP/SGP4

EPOCH          = 2025-11-25T11:29:56.228064
MEAN_MOTION    = 15.74177822
ECCENTRICITY   = .0001859
INCLINATION    = 53.1588
RA_OF_ASC_NODE = 0.5855
ARG_OF_PERICENTER = 107.1232
MEAN_ANOMALY   = 252.9991

EPHEMERIS_TYPE = 0
CLASSIFICATION_TYPE = U
NORAD_CAT_ID   = 66361
ELEMENT_SET_NO = 999
REV_AT_EPOCH   = 296
BSTAR          = .55515E-3
MEAN_MOTION_DOT = .81425E-3
MEAN_MOTION_DDOT = 0

CCSDS_OMM_VERS = 2.0
CREATION_DATE  = 
ORIGINATOR     = 

OBJECT_NAME    = STARLINK-35822
OBJECT_ID      = 2025-254Q
CENTER_NAME    = EARTH
REF_FRAME      = TEME
TIME_SYSTEM    = UTC
MEAN_ELEMENT_THEORY = SGP/SGP4

EPOCH          = 2025-11-25T11:28:28.610688
MEAN_MOTION    = 15.74174742
ECCENTRICITY   = .0001634
INCLINATION    = 53.1587
RA_OF_ASC_NODE = 0.5783
ARG_OF_PERICENTER = 96.3876
MEAN_ANOMALY   = 263.7330

EPHEMERIS_TYPE = 0
CLASSIFICATION_TYPE = U
NORAD_CAT_ID   = 66362
ELEMENT_SET_NO = 999
REV_AT_EPOCH   = 296
BSTAR          = .50234E-3
MEAN_MOTION_DOT = .73539E-3
MEAN_MOTION_DDOT = 0

CCSDS_OMM_VERS = 2.0
CREATION_DATE  = 
ORIGINATOR     = 

OBJECT_NAME    = STARLINK-35806
OBJECT_ID      = 2025-254R
CENTER_NAME    = EARTH
REF_FRAME      = TEME
TIME_SYSTEM    = UTC
MEAN_ELEMENT_THEORY = SGP/SGP4

EPOCH          = 2025-11-25T11:28:57.870048
MEAN_MOTION    = 15.74180214
ECCENTRICITY   = .0001701
INCLINATION    = 53.1587
RA_OF_ASC_NODE = 0.5803
ARG_OF_PERICENTER = 72.8603
MEAN_ANOMALY   = 287.2603

EPHEMERIS_TYPE = 0
CLASSIFICATION_TYPE = U
NORAD_CAT_ID   = 66363
ELEMENT_SET_NO = 999
REV_AT_EPOCH   = 296
BSTAR          = .64715E-3
MEAN_MOTION_DOT = .95189E-3
MEAN_MOTION_DDOT = 0

